{
  "type": "FeatureCollection",
  "features": [
    {
      "type": "Feature",
      "properties": {
        "norad_id": 50032,
        "name": "COSMOS 1408 DEB",
        "group": "cosmos-1408-debris",
        "lat": 76.60201229795481,
        "lon": -169.34218213329015,
        "alt_km": 415.24203435478194,
        "timestamp": "2025-12-26T23:26:42.399750+00:00",
        "meta_object_name": "COSMOS 1408 DEB",
        "meta_object_id": "1982-092RU",
        "meta_epoch": "2025-12-26T13:41:14.335584",
        "meta_mean_motion": 15.45830643,
        "meta_eccentricity": 0.00166626,
        "meta_inclination": 82.5631,
        "meta_ra_of_asc_node": 44.3315,
        "meta_arg_of_pericenter": 157.9043,
        "meta_mean_anomaly": 202.2928,
        "meta_ephemeris_type": 0,
        "meta_classification_type": "U",
        "meta_norad_cat_id": 50032,
        "meta_element_set_no": 999,
        "meta_rev_at_epoch": 22817,
        "meta_bstar": 0.00010349994,
        "meta_mean_motion_dot": 5.085e-05,
        "meta_mean_motion_ddot": 0,
        "tle_line1": "1 50032U 82092RU  25360.57030481  .00005085  00000+0  10350-3 0  9994",
        "tle_line2": "2 50032  82.5631  44.3315 0016662 157.9043 202.2928 15.45830643228171"
      },
      "geometry": {
        "type": "Point",
        "coordinates": [
          -169.34218213329015,
          76.60201229795481
        ]
      }
    },
    {
      "type": "Feature",
      "properties": {
        "norad_id": 50058,
        "name": "COSMOS 1408 DEB",
        "group": "cosmos-1408-debris",
        "lat": -3.4108622274256826,
        "lon": -125.12623529219555,
        "alt_km": 384.2078187945044,
        "timestamp": "2025-12-26T23:26:42.399767+00:00",
        "meta_object_name": "COSMOS 1408 DEB",
        "meta_object_id": "1982-092SW",
        "meta_epoch": "2025-12-26T13:27:27.815904",
        "meta_mean_motion": 15.64941928,
        "meta_eccentricity": 0.00157888,
        "meta_inclination": 82.6117,
        "meta_ra_of_asc_node": 54.8668,
        "meta_arg_of_pericenter": 51.6481,
        "meta_mean_anomaly": 308.6195,
        "meta_ephemeris_type": 0,
        "meta_classification_type": "U",
        "meta_norad_cat_id": 50058,
        "meta_element_set_no": 999,
        "meta_rev_at_epoch": 23020,
        "meta_bstar": 0.00032591019,
        "meta_mean_motion_dot": 0.00032187,
        "meta_mean_motion_ddot": 0,
        "tle_line1": "1 50058U 82092SW  25360.56073861  .00032187  00000+0  32591-3 0  9994",
        "tle_line2": "2 50058  82.6117  54.8668 0015788  51.6481 308.6195 15.64941928230204"
      },
      "geometry": {
        "type": "Point",
        "coordinates": [
          -125.12623529219555,
          -3.4108622274256826
        ]
      }
    },
    {
      "type": "Feature",
      "properties": {
        "norad_id": 50404,
        "name": "COSMOS 1408 DEB",
        "group": "cosmos-1408-debris",
        "lat": -80.43127592741943,
        "lon": 146.05164234867505,
        "alt_km": 590.4093451149274,
        "timestamp": "2025-12-26T23:26:42.399779+00:00",
        "meta_object_name": "COSMOS 1408 DEB",
        "meta_object_id": "1982-092ADS",
        "meta_epoch": "2025-12-26T12:44:23.536608",
        "meta_mean_motion": 15.16044724,
        "meta_eccentricity": 0.01658111,
        "meta_inclination": 82.2023,
        "meta_ra_of_asc_node": 200.8914,
        "meta_arg_of_pericenter": 151.3559,
        "meta_mean_anomaly": 209.691,
        "meta_ephemeris_type": 0,
        "meta_classification_type": "U",
        "meta_norad_cat_id": 50404,
        "meta_element_set_no": 999,
        "meta_rev_at_epoch": 21402,
        "meta_bstar": 0.003182209,
        "meta_mean_motion_dot": 0.00087949,
        "meta_mean_motion_ddot": 0,
        "tle_line1": "1 50404U 82092ADS 25360.53082797  .00087949  00000+0  31822-2 0  9995",
        "tle_line2": "2 50404  82.2023 200.8914 0165811 151.3559 209.6910 15.16044724214027"
      },
      "geometry": {
        "type": "Point",
        "coordinates": [
          146.05164234867505,
          -80.43127592741943
        ]
      }
    },
    {
      "type": "Feature",
      "properties": {
        "norad_id": 50621,
        "name": "COSMOS 1408 DEB",
        "group": "cosmos-1408-debris",
        "lat": 3.9908255040827276,
        "lon": -121.1708867225742,
        "alt_km": 392.41067255366397,
        "timestamp": "2025-12-26T23:26:42.399789+00:00",
        "meta_object_name": "COSMOS 1408 DEB",
        "meta_object_id": "1982-092ALR",
        "meta_epoch": "2025-12-26T04:11:24.957024",
        "meta_mean_motion": 15.573508,
        "meta_eccentricity": 0.0029295,
        "meta_inclination": 82.5694,
        "meta_ra_of_asc_node": 60.187,
        "meta_arg_of_pericenter": 104.4386,
        "meta_mean_anomaly": 256.0123,
        "meta_ephemeris_type": 0,
        "meta_classification_type": "U",
        "meta_norad_cat_id": 50621,
        "meta_element_set_no": 999,
        "meta_rev_at_epoch": 22459,
        "meta_bstar": 0.00035611,
        "meta_mean_motion_dot": 0.00026635,
        "meta_mean_motion_ddot": 0,
        "tle_line1": "1 50621U 82092ALR 25360.17459441  .00026635  00000+0  35611-3 0  9996",
        "tle_line2": "2 50621  82.5694  60.1870 0029295 104.4386 256.0123 15.57350800224590"
      },
      "geometry": {
        "type": "Point",
        "coordinates": [
          -121.1708867225742,
          3.9908255040827276
        ]
      }
    }
  ]
}